OBJECT_NAME,OBJECT_ID,EPOCH,MEAN_MOTION,ECCENTRICITY,INCLINATION,RA_OF_ASC_NODE,ARG_OF_PERICENTER,MEAN_ANOMALY,EPHEMERIS_TYPE,CLASSIFICATION_TYPE,NORAD_CAT_ID,ELEMENT_SET_NO,REV_AT_EPOCH,BSTAR,MEAN_MOTION_DOT,MEAN_MOTION_DDOT
QB50P1,2014-033R,2026-07-12T12:29:54.904704,15.18640557,.00102199,98.0964,206.4495,132.7489,227.4606,0,U,40025,999,65687,.25721199E-3,.5256E-4,0
DTUSAT-2,2014-033W,2026-07-11T12:58:46.506720,15.15323901,.00090244,98.0873,191.8202,142.6007,217.5854,0,U,40030,999,65637,.23319422E-3,.4323E-4,0
QB50P2,2014-033Y,2026-07-12T10:58:14.755872,15.15485152,.00093557,98.0759,191.9172,91.3787,268.8515,0,U,40032,999,65649,.21528358E-3,.4004E-4,0
PERSEUS-M1,2014-033AF,2026-07-12T19:01:53.947200,14.95709687,.0010778,97.9651,138.3475,204.8282,155.2421,0,U,40039,999,65446,.11974E-3,.1273E-4,0
POLYITAN-1,2014-033AJ,2026-07-12T13:29:41.291808,15.34156417,.0008123,98.0940,222.2395,71.5850,288.6273,0,U,40042,999,65748,.38349E-3,.12606E-3,0
TIGRISAT,2014-033AK,2026-07-11T08:52:24.274560,14.85242878,.00489566,97.7858,341.8319,356.9649,3.1262,0,U,40043,999,64921,.10764196E-3,.887E-5,0
CANX-4,2014-034C,2026-07-12T13:12:43.994016,14.81308374,.0011482,98.3088,69.7910,292.3453,67.6541,0,U,40055,999,64828,.6273E-4,.432E-5,0
CANX-5,2014-034D,2026-07-12T03:26:26.256480,14.81325415,.00114935,98.3091,69.4141,293.9901,66.0106,0,U,40056,999,63903,.66165812E-4,.459E-5,0
GONETS-M 10,2014-036C,2026-07-12T19:52:46.568064,12.42946308,.0022983,82.5122,291.7490,87.3640,273.0070,0,U,40063,999,54543,.25945E-3,.46E-6,0
METEOR-M 2,2014-037A,2026-07-12T21:47:55.793760,14.21469489,.0005281,98.5123,168.7372,334.3901,25.7015,0,U,40069,999,62297,.1064E-3,.191E-5,0
DX1,2014-037C,2026-07-12T21:07:01.383168,14.90059076,.0006807,98.3875,157.1439,176.6929,183.4333,0,U,40071,999,64993,.56457E-4,.482E-5,0
UKUBE-1,2014-037F,2026-07-12T19:34:53.524992,15.13929768,.0003316,98.4241,199.7883,92.8928,267.2681,0,U,40074,999,65243,.28821E-3,.5144E-4,0
GAOFEN-2,2014-049A,2026-07-12T20:26:38.124096,14.80923198,.0008074,98.0104,258.0330,141.2599,218.9193,0,U,40118,999,64303,-.34684E-4,-.322E-5,0
BRITE-PL2 (HEWELIUSZ),2014-049B,2026-07-12T17:54:23.803776,14.94683534,.0014565,97.9118,305.9469,30.2363,329.9695,0,U,40119,999,64526,.84332E-4,.856E-5,0
CBERS 4,2014-079A,2026-07-12T21:31:03.770688,14.35515124,.0000886,98.3526,249.9196,53.1641,306.9626,0,U,40336,999,60764,-.71504E-5,-.63E-6,0
SMAP,2015-003A,2026-07-12T20:34:55.059744,14.63388029,.0001581,98.1283,200.5891,95.7393,264.3989,0,U,40376,999,61137,.49877E-4,.211E-5,0
GONETS-M 11,2015-020A,2026-07-12T20:21:13.686912,12.42878597,.0015465,82.4864,14.9990,308.7135,51.2561,0,U,40552,999,51192,.58684E-3,.91E-6,0
GONETS-M 12,2015-020B,2026-07-12T21:38:34.380384,12.42892068,.0014307,82.4897,16.0961,292.6346,67.3220,0,U,40553,999,51192,.21602E-3,.4E-6,0
GONETS-M 13,2015-020C,2026-07-12T21:01:00.244128,12.42871778,.0012807,82.4859,14.7199,276.5681,83.3940,0,U,40554,999,51189,.17558E-3,.34E-6,0
DMC3-FM1,2015-032A,2026-07-12T19:08:13.269120,14.85768111,.0005115,97.6441,57.9649,347.0249,13.0835,0,U,40715,999,59371,.80682E-4,.65E-5,0
DMC3-FM2,2015-032B,2026-07-12T21:16:48.319104,14.85770617,.0005795,97.6495,59.6418,350.4309,9.6795,0,U,40716,999,59372,-.29666E-4,-.309E-5,0
DMC3-FM3,2015-032C,2026-07-12T20:13:41.077056,14.85759583,.0005017,97.6544,61.3686,352.1976,7.9160,0,U,40717,999,59372,.1397E-4,.7E-6,0
CARBONITE 1 (CBNT-1),2015-032D,2026-07-12T19:28:08.301216,14.83664590,.001362,97.6518,10.8077,205.1882,154.8670,0,U,40718,999,59314,.12065E-3,.947E-5,0
LILACSAT-2,2015-049K,2026-07-12T20:54:16.984224,15.52304289,.0008281,97.4629,231.6990,148.3423,211.8329,0,U,40908,999,59973,.22957E-3,.13885E-3,0
COSMOS 2507 (RODNIK-S 13),2015-050A,2026-07-12T19:54:24.539616,12.42927039,.0009113,82.4916,63.7037,299.1338,60.8829,0,U,40920,999,49004,-.16277E-3,-.13E-6,0
COSMOS 2508 (RODNIK-S 14),2015-050B,2026-07-12T20:45:53.971200,12.42914629,.0014059,82.4869,62.1766,332.1140,27.9185,0,U,40921,999,49003,-.1555E-3,-.12E-6,0
